STARLINK-1277           
1 45369U 20019K   25318.30012374 -.00004770  00000+0 -30179-3 0  9990
2 45369  53.0553 325.2505 0001416  92.9974 267.1177 15.06367107312333
STARLINK-1281           
1 45370U 20019L   25318.29636180  .00008538  00000+0  59201-3 0  9998
2 45370  53.0550 324.6416 0001258  82.2780 277.8352 15.06360445312349
STARLINK-1300           
1 45374U 20019Q   25318.31848420  .00010340  00000+0  71300-3 0  9995
2 45374  53.0548 324.5391 0001174  83.3492 276.7631 15.06350124312341
STARLINK-1302           
1 45375U 20019R   25318.26686553  .00001270  00000+0  10423-3 0  9998
2 45375  53.0545 324.7717 0001408  92.2710 267.8440 15.06360455312331
STARLINK-1304           
1 45376U 20019S   25318.28530250 -.00007678  00000+0 -49760-3 0  9999
2 45376  53.0554 324.6886 0001560  91.7242 268.3926 15.06361393312338
STARLINK-1305           
1 45377U 20019T   25318.19090786  .00018231  00000+0  57163-3 0  9996
2 45377  53.0553 320.3318 0004056  43.9339 316.1984 15.33131604312392
STARLINK-1319           
1 45379U 20019V   25318.17040843  .00022027  00000+0  59696-3 0  9996
2 45379  53.0543 322.3931 0002204  67.9099 292.2137 15.37596527312362
STARLINK-1266           
1 45383U 20019Z   25318.17286153 -.00005058  00000+0 -32104-3 0  9999
2 45383  53.0549 305.1945 0001678  96.5637 263.5543 15.06384285312596
STARLINK-1267           
1 45384U 20019AA  25318.22456528  .00001058  00000+0  89981-4 0  9991
2 45384  53.0547 305.6201 0001435  82.5963 277.5189 15.06355426312599
STARLINK-1272           
1 45386U 20019AC  25318.23589664  .00074100  00000+0  20823-2 0  9998
2 45386  53.0530 300.0414 0005561  52.5628 307.5879 15.35864779312674
STARLINK-1274           
1 45387U 20019AD  25318.30834216  .00016620  00000+0  56075-3 0  9995
2 45387  53.0365 287.5401 0003796 359.9386   0.1612 15.30841662312851
STARLINK-1280           
1 45388U 20019AE  25318.25955752  .00052129  00000+0  12193-2 0  9995
2 45388  53.0550 318.8665 0005085  34.2579 325.8753 15.41649472312409
STARLINK-1283           
1 45389U 20019AF  25318.23791858  .00062792  00000+0  19843-2 0  9995
2 45389  53.0525 298.9704 0006758  50.5733 309.5864 15.32222879312696
STARLINK-1284           
1 45390U 20019AG  25318.17654960 -.00003106  00000+0 -18982-3 0  9992
2 45390  53.0554 305.1795 0001247  97.4415 262.6716 15.06386994312590
STARLINK-1292           
1 45394U 20019AL  25318.30150949  .01280030  12068-2  92312-3 0  9990
2 45394  53.0387 245.0701 0002990 122.9243 237.2081 16.15521346313188
STARLINK-1297           
1 45395U 20019AM  25318.21341063  .00005478  00000+0  38652-3 0  9997
2 45395  53.0545 305.0133 0001497  92.4132 267.7028 15.06383988311780
