[{"OBJECT_NAME":"STARLINK-1277","OBJECT_ID":"2020-019K","EPOCH":"2025-11-14T07:12:10.691136","MEAN_MOTION":15.06367107,"ECCENTRICITY":0.00014165,"INCLINATION":53.0553,"RA_OF_ASC_NODE":325.2505,"ARG_OF_PERICENTER":92.9974,"MEAN_ANOMALY":267.1177,"EPHEMERIS_TYPE":0,"CLASSIFICATION_TYPE":"U","NORAD_CAT_ID":45369,"ELEMENT_SET_NO":999,"REV_AT_EPOCH":31233,"BSTAR":-0.00030178964,"MEAN_MOTION_DOT":-4.77e-5,"MEAN_MOTION_DDOT":0},{"OBJECT_NAME":"STARLINK-1281","OBJECT_ID":"2020-019L","EPOCH":"2025-11-14T07:06:45.659520","MEAN_MOTION":15.06360445,"ECCENTRICITY":0.00012581,"INCLINATION":53.055,"RA_OF_ASC_NODE":324.6416,"ARG_OF_PERICENTER":82.278,"MEAN_ANOMALY":277.8352,"EPHEMERIS_TYPE":0,"CLASSIFICATION_TYPE":"U","NORAD_CAT_ID":45370,"ELEMENT_SET_NO":999,"REV_AT_EPOCH":31234,"BSTAR":0.00059200944,"MEAN_MOTION_DOT":8.538e-5,"MEAN_MOTION_DDOT":0},{"OBJECT_NAME":"STARLINK-1300","OBJECT_ID":"2020-019Q","EPOCH":"2025-11-14T07:38:37.034880","MEAN_MOTION":15.06350124,"ECCENTRICITY":0.00011748,"INCLINATION":53.0548,"RA_OF_ASC_NODE":324.5391,"ARG_OF_PERICENTER":83.3492,"MEAN_ANOMALY":276.7631,"EPHEMERIS_TYPE":0,"CLASSIFICATION_TYPE":"U","NORAD_CAT_ID":45374,"ELEMENT_SET_NO":999,"REV_AT_EPOCH":31234,"BSTAR":0.00071299873,"MEAN_MOTION_DOT":0.0001034,"MEAN_MOTION_DDOT":0},{"OBJECT_NAME":"STARLINK-1302","OBJECT_ID":"2020-019R","EPOCH":"2025-11-14T06:24:17.181792","MEAN_MOTION":15.06360455,"ECCENTRICITY":0.0001408,"INCLINATION":53.0545,"RA_OF_ASC_NODE":324.7717,"ARG_OF_PERICENTER":92.271,"MEAN_ANOMALY":267.844,"EPHEMERIS_TYPE":0,"CLASSIFICATION_TYPE":"U","NORAD_CAT_ID":45375,"ELEMENT_SET_NO":999,"REV_AT_EPOCH":31233,"BSTAR":0.00010422543,"MEAN_MOTION_DOT":1.27e-5,"MEAN_MOTION_DDOT":0},{"OBJECT_NAME":"STARLINK-1304","OBJECT_ID":"2020-019S","EPOCH":"2025-11-14T06:50:50.136000","MEAN_MOTION":15.06361393,"ECCENTRICITY":0.00015607,"INCLINATION":53.0554,"RA_OF_ASC_NODE":324.6886,"ARG_OF_PERICENTER":91.7242,"MEAN_ANOMALY":268.3926,"EPHEMERIS_TYPE":0,"CLASSIFICATION_TYPE":"U","NORAD_CAT_ID":45376,"ELEMENT_SET_NO":999,"REV_AT_EPOCH":31233,"BSTAR":-0.00049759611,"MEAN_MOTION_DOT":-7.678e-5,"MEAN_MOTION_DDOT":0},{"OBJECT_NAME":"STARLINK-1305","OBJECT_ID":"2020-019T","EPOCH":"2025-11-14T04:34:54.439104","MEAN_MOTION":15.33131604,"ECCENTRICITY":0.00040562,"INCLINATION":53.0553,"RA_OF_ASC_NODE":320.3318,"ARG_OF_PERICENTER":43.9339,"MEAN_ANOMALY":316.1984,"EPHEMERIS_TYPE":0,"CLASSIFICATION_TYPE":"U","NORAD_CAT_ID":45377,"ELEMENT_SET_NO":999,"REV_AT_EPOCH":31239,"BSTAR":0.00057162919,"MEAN_MOTION_DOT":0.00018231,"MEAN_MOTION_DDOT":0},{"OBJECT_NAME":"STARLINK-1319","OBJECT_ID":"2020-019V","EPOCH":"2025-11-14T04:05:23.288352","MEAN_MOTION":15.37596527,"ECCENTRICITY":0.00022041,"INCLINATION":53.0543,"RA_OF_ASC_NODE":322.3931,"ARG_OF_PERICENTER":67.9099,"MEAN_ANOMALY":292.2137,"EPHEMERIS_TYPE":0,"CLASSIFICATION_TYPE":"U","NORAD_CAT_ID":45379,"ELEMENT_SET_NO":999,"REV_AT_EPOCH":31236,"BSTAR":0.00059696438,"MEAN_MOTION_DOT":0.00022027,"MEAN_MOTION_DDOT":0},{"OBJECT_NAME":"STARLINK-1266","OBJECT_ID":"2020-019Z","EPOCH":"2025-11-14T04:08:55.236192","MEAN_MOTION":15.06384285,"ECCENTRICITY":0.00016789,"INCLINATION":53.0549,"RA_OF_ASC_NODE":305.1945,"ARG_OF_PERICENTER":96.5637,"MEAN_ANOMALY":263.5543,"EPHEMERIS_TYPE":0,"CLASSIFICATION_TYPE":"U","NORAD_CAT_ID":45383,"ELEMENT_SET_NO":999,"REV_AT_EPOCH":31259,"BSTAR":-0.00032103542,"MEAN_MOTION_DOT":-5.058e-5,"MEAN_MOTION_DDOT":0},{"OBJECT_NAME":"STARLINK-1267","OBJECT_ID":"2020-019AA","EPOCH":"2025-11-14T05:23:22.440192","MEAN_MOTION":15.06355426,"ECCENTRICITY":0.00014358,"INCLINATION":53.0547,"RA_OF_ASC_NODE":305.6201,"ARG_OF_PERICENTER":82.5963,"MEAN_ANOMALY":277.5189,"EPHEMERIS_TYPE":0,"CLASSIFICATION_TYPE":"U","NORAD_CAT_ID":45384,"ELEMENT_SET_NO":999,"REV_AT_EPOCH":31259,"BSTAR":8.9980506e-5,"MEAN_MOTION_DOT":1.058e-5,"MEAN_MOTION_DDOT":0},{"OBJECT_NAME":"STARLINK-1272","OBJECT_ID":"2020-019AC","EPOCH":"2025-11-14T05:39:41.469696","MEAN_MOTION":15.35864779,"ECCENTRICITY":0.00055614,"INCLINATION":53.053,"RA_OF_ASC_NODE":300.0414,"ARG_OF_PERICENTER":52.5628,"MEAN_ANOMALY":307.5879,"EPHEMERIS_TYPE":0,"CLASSIFICATION_TYPE":"U","NORAD_CAT_ID":45386,"ELEMENT_SET_NO":999,"REV_AT_EPOCH":31267,"BSTAR":0.0020822547,"MEAN_MOTION_DOT":0.000741,"MEAN_MOTION_DDOT":0},{"OBJECT_NAME":"STARLINK-1274","OBJECT_ID":"2020-019AD","EPOCH":"2025-11-14T07:24:00.762624","MEAN_MOTION":15.30841662,"ECCENTRICITY":0.0003796,"INCLINATION":53.0365,"RA_OF_ASC_NODE":287.5401,"ARG_OF_PERICENTER":359.9386,"MEAN_ANOMALY":0.1612,"EPHEMERIS_TYPE":0,"CLASSIFICATION_TYPE":"U","NORAD_CAT_ID":45387,"ELEMENT_SET_NO":999,"REV_AT_EPOCH":31285,"BSTAR":0.00056074751,"MEAN_MOTION_DOT":0.0001662,"MEAN_MOTION_DDOT":0},{"OBJECT_NAME":"STARLINK-1280","OBJECT_ID":"2020-019AE","EPOCH":"2025-11-14T06:13:45.769728","MEAN_MOTION":15.41649472,"ECCENTRICITY":0.00050858,"INCLINATION":53.055,"RA_OF_ASC_NODE":318.8665,"ARG_OF_PERICENTER":34.2579,"MEAN_ANOMALY":325.8753,"EPHEMERIS_TYPE":0,"CLASSIFICATION_TYPE":"U","NORAD_CAT_ID":45388,"ELEMENT_SET_NO":999,"REV_AT_EPOCH":31240,"BSTAR":0.0012192826,"MEAN_MOTION_DOT":0.00052129,"MEAN_MOTION_DDOT":0},{"OBJECT_NAME":"STARLINK-1283","OBJECT_ID":"2020-019AF","EPOCH":"2025-11-14T05:42:36.165312","MEAN_MOTION":15.32222879,"ECCENTRICITY":0.00067583,"INCLINATION":53.0525,"RA_OF_ASC_NODE":298.9704,"ARG_OF_PERICENTER":50.5733,"MEAN_ANOMALY":309.5864,"EPHEMERIS_TYPE":0,"CLASSIFICATION_TYPE":"U","NORAD_CAT_ID":45389,"ELEMENT_SET_NO":999,"REV_AT_EPOCH":31269,"BSTAR":0.001984338,"MEAN_MOTION_DOT":0.00062792,"MEAN_MOTION_DDOT":0},{"OBJECT_NAME":"STARLINK-1284","OBJECT_ID":"2020-019AG","EPOCH":"2025-11-14T04:14:13.885440","MEAN_MOTION":15.06386994,"ECCENTRICITY":0.00012473,"INCLINATION":53.0554,"RA_OF_ASC_NODE":305.1795,"ARG_OF_PERICENTER":97.4415,"MEAN_ANOMALY":262.6716,"EPHEMERIS_TYPE":0,"CLASSIFICATION_TYPE":"U","NORAD_CAT_ID":45390,"ELEMENT_SET_NO":999,"REV_AT_EPOCH":31259,"BSTAR":-0.00018981523,"MEAN_MOTION_DOT":-3.106e-5,"MEAN_MOTION_DDOT":0},{"OBJECT_NAME":"STARLINK-1292","OBJECT_ID":"2020-019AL","EPOCH":"2025-11-14T07:14:10.419936","MEAN_MOTION":16.15521346,"ECCENTRICITY":0.00029905,"INCLINATION":53.0387,"RA_OF_ASC_NODE":245.0701,"ARG_OF_PERICENTER":122.9243,"MEAN_ANOMALY":237.2081,"EPHEMERIS_TYPE":0,"CLASSIFICATION_TYPE":"U","NORAD_CAT_ID":45394,"ELEMENT_SET_NO":999,"REV_AT_EPOCH":31318,"BSTAR":0.000923124,"MEAN_MOTION_DOT":0.0128003,"MEAN_MOTION_DDOT":0.0012068281},{"OBJECT_NAME":"STARLINK-1297","OBJECT_ID":"2020-019AM","EPOCH":"2025-11-14T05:07:18.678432","MEAN_MOTION":15.06383988,"ECCENTRICITY":0.00014977,"INCLINATION":53.0545,"RA_OF_ASC_NODE":305.0133,"ARG_OF_PERICENTER":92.4132,"MEAN_ANOMALY":267.7028,"EPHEMERIS_TYPE":0,"CLASSIFICATION_TYPE":"U","NORAD_CAT_ID":45395,"ELEMENT_SET_NO":999,"REV_AT_EPOCH":31178,"BSTAR":0.00038651508,"MEAN_MOTION_DOT":5.478e-5,"MEAN_MOTION_DDOT":0}]
